[{"OBJECT_NAME":"STARLINK-34098","OBJECT_ID":"2025-107S","EPOCH":"2026-03-09T10:25:32.624832","MEAN_MOTION":15.27598783,"ECCENTRICITY":0.00020373,"INCLINATION":42.9976,"RA_OF_ASC_NODE":202.7882,"ARG_OF_PERICENTER":184.0291,"MEAN_ANOMALY":176.0544,"EPHEMERIS_TYPE":0,"CLASSIFICATION_TYPE":"U","NORAD_CAT_ID":64080,"ELEMENT_SET_NO":999,"REV_AT_EPOCH":4608,"BSTAR":0.0010459553,"MEAN_MOTION_DOT":0.00028649,"MEAN_MOTION_DDOT":0},{"OBJECT_NAME":"TITAN 3C TRANSTAGE DEB","OBJECT_ID":"1965-108Q","EPOCH":"2026-03-09T09:29:48.088608","MEAN_MOTION":3.70378625,"ECCENTRICITY":0.61639448,"INCLINATION":26.6164,"RA_OF_ASC_NODE":86.03,"ARG_OF_PERICENTER":129.752,"MEAN_ANOMALY":303.2025,"EPHEMERIS_TYPE":0,"CLASSIFICATION_TYPE":"U","NORAD_CAT_ID":5986,"ELEMENT_SET_NO":999,"REV_AT_EPOCH":29322,"BSTAR":0.0037195409,"MEAN_MOTION_DOT":3.562e-5,"MEAN_MOTION_DDOT":0}]
